STARLINK-36704          
1 67697U 26025E   26053.25002314 -.00039841  00000+0 -20792-3 0  9992
2 67697  97.2766 164.0265 0001208  58.4469  61.0696 15.80845699  3371
STARLINK-36697          
1 67698U 26025F   26053.25002314  .00253627  00000+0  12931-2 0  9996
2 67698  97.2764 164.0297 0001299 102.6364  24.3813 15.80707486  3320
STARLINK-36716          
1 67699U 26025G   26053.25002314  .00061302  00000+0  31898-3 0  9998
2 67699  97.2758 164.0334 0001604  81.2862  55.5834 15.80784914  3523
STARLINK-36712          
1 67700U 26025H   26053.25002314 -.00066545  00000+0 -34891-3 0  9993
2 67700  97.2754 164.0376 0001243  86.6704  59.7963 15.80841535  3321
STARLINK-36713          
1 67701U 26025J   26053.25002314 -.00528107  00000+0 -28817-2 0  9991
2 67701  97.2746 164.0406 0000852  61.9417  94.0478 15.81154037  3529
STARLINK-36695          
1 67702U 26025K   26053.25002314 -.00913407  00000+0 -51221-2 0  9998
2 67702  97.2742 164.0440 0001597  47.9182 115.9418 15.81512337  3375
STARLINK-36630          
1 67703U 26025L   26053.25002314 -.01243964  00000+0 -69763-2 0  9994
2 67703  97.2740 164.0475 0001658  50.7323 120.7244 15.81877549  3379
STARLINK-36338          
1 67704U 26025M   26053.25002314 -.01546574  00000+0 -85573-2 0  9995
2 67704  97.2733 164.0516 0001558  75.6812 105.9326 15.82322746  3423
STARLINK-36316          
1 67705U 26025N   26053.25002314 -.01562732  00000+0 -83876-2 0  9994
2 67705  97.2723 164.0600 0001822  66.3070 135.8248 15.82995464  3422
STARLINK-36707          
1 67706U 26025P   26053.25002314 -.01558425  00000+0 -82242-2 0  9995
2 67706  97.2715 164.0643 0001746  64.4324 148.3988 15.83345485  3217
STARLINK-36645          
1 67707U 26025Q   26053.25002314 -.01560081  00000+0 -84846-2 0  9999
2 67707  97.2724 164.0559 0001635  69.4803 123.9129 15.82713278  2974
STARLINK-36287          
1 67708U 26025R   26053.25002314 -.01562928  00000+0 -81321-2 0  9997
2 67708  97.2708 164.0675 0001567  77.5071 144.5503 15.83653750  3523
